[{"OBJECT_NAME":"SAOCOM 1A","OBJECT_ID":"2018-076A","EPOCH":"2026-03-24T11:28:03.707616","MEAN_MOTION":14.82156455,"ECCENTRICITY":0.0001452,"INCLINATION":97.89,"RA_OF_ASC_NODE":271.4414,"ARG_OF_PERICENTER":88.537,"MEAN_ANOMALY":271.601,"EPHEMERIS_TYPE":0,"CLASSIFICATION_TYPE":"U","NORAD_CAT_ID":43641,"ELEMENT_SET_NO":999,"REV_AT_EPOCH":40355,"BSTAR":9.4837e-5,"MEAN_MOTION_DOT":7.03e-6,"MEAN_MOTION_DDOT":0},{"OBJECT_NAME":"H-2A R/B","OBJECT_ID":"2018-084L","EPOCH":"2026-03-24T08:04:42.981312","MEAN_MOTION":15.41959478,"ECCENTRICITY":0.0024146,"INCLINATION":98.8706,"RA_OF_ASC_NODE":303.861,"ARG_OF_PERICENTER":334.6064,"MEAN_ANOMALY":25.399,"EPHEMERIS_TYPE":0,"CLASSIFICATION_TYPE":"U","NORAD_CAT_ID":43682,"ELEMENT_SET_NO":999,"REV_AT_EPOCH":40803,"BSTAR":0.00043984,"MEAN_MOTION_DOT":0.00018828,"MEAN_MOTION_DDOT":0},{"OBJECT_NAME":"SAOCOM 1B","OBJECT_ID":"2020-059A","EPOCH":"2026-03-24T12:13:01.526016","MEAN_MOTION":14.82150587,"ECCENTRICITY":0.000149,"INCLINATION":97.8901,"RA_OF_ASC_NODE":270.5702,"ARG_OF_PERICENTER":86.221,"MEAN_ANOMALY":273.9174,"EPHEMERIS_TYPE":0,"CLASSIFICATION_TYPE":"U","NORAD_CAT_ID":46265,"ELEMENT_SET_NO":999,"REV_AT_EPOCH":30094,"BSTAR":9.4793e-6,"MEAN_MOTION_DOT":2.3e-7,"MEAN_MOTION_DDOT":0},{"OBJECT_NAME":"CSS (TIANHE)","OBJECT_ID":"2021-035A","EPOCH":"2026-03-24T11:51:17.918496","MEAN_MOTION":15.6142758,"ECCENTRICITY":0.0004758,"INCLINATION":41.4663,"RA_OF_ASC_NODE":118.0307,"ARG_OF_PERICENTER":10.7895,"MEAN_ANOMALY":349.3045,"EPHEMERIS_TYPE":0,"CLASSIFICATION_TYPE":"U","NORAD_CAT_ID":48274,"ELEMENT_SET_NO":999,"REV_AT_EPOCH":27992,"BSTAR":0.000224,"MEAN_MOTION_DOT":0.00019397,"MEAN_MOTION_DDOT":0},{"OBJECT_NAME":"CZ-2C R/B","OBJECT_ID":"2022-058K","EPOCH":"2026-03-24T03:59:05.689248","MEAN_MOTION":15.55264976,"ECCENTRICITY":0.00416351,"INCLINATION":50.1878,"RA_OF_ASC_NODE":243.7627,"ARG_OF_PERICENTER":262.6993,"MEAN_ANOMALY":96.9245,"EPHEMERIS_TYPE":0,"CLASSIFICATION_TYPE":"U","NORAD_CAT_ID":52794,"ELEMENT_SET_NO":999,"REV_AT_EPOCH":21238,"BSTAR":0.00043415476,"MEAN_MOTION_DOT":0.00030792,"MEAN_MOTION_DDOT":0},{"OBJECT_NAME":"CZ-2C R/B","OBJECT_ID":"2022-132E","EPOCH":"2026-03-23T23:21:41.941440","MEAN_MOTION":15.63169879,"ECCENTRICITY":0.00187086,"INCLINATION":97.2964,"RA_OF_ASC_NODE":86.738,"ARG_OF_PERICENTER":45.7338,"MEAN_ANOMALY":314.5452,"EPHEMERIS_TYPE":0,"CLASSIFICATION_TYPE":"U","NORAD_CAT_ID":54039,"ELEMENT_SET_NO":999,"REV_AT_EPOCH":19260,"BSTAR":0.00050219048,"MEAN_MOTION_DOT":0.0004629,"MEAN_MOTION_DDOT":0},{"OBJECT_NAME":"GSLV R/B","OBJECT_ID":"2022-138AN","EPOCH":"2026-03-24T11:53:23.467200","MEAN_MOTION":14.96870505,"ECCENTRICITY":0.0024109,"INCLINATION":87.3866,"RA_OF_ASC_NODE":161.4065,"ARG_OF_PERICENTER":97.635,"MEAN_ANOMALY":262.7621,"EPHEMERIS_TYPE":0,"CLASSIFICATION_TYPE":"U","NORAD_CAT_ID":54149,"ELEMENT_SET_NO":999,"REV_AT_EPOCH":18614,"BSTAR":0.00027994,"MEAN_MOTION_DOT":3.256e-5,"MEAN_MOTION_DDOT":0},{"OBJECT_NAME":"XRISM","OBJECT_ID":"2023-137A","EPOCH":"2026-03-24T11:57:18.995328","MEAN_MOTION":15.11664552,"ECCENTRICITY":0.0007952,"INCLINATION":31.001,"RA_OF_ASC_NODE":187.8676,"ARG_OF_PERICENTER":188.7365,"MEAN_ANOMALY":171.3136,"EPHEMERIS_TYPE":0,"CLASSIFICATION_TYPE":"U","NORAD_CAT_ID":57800,"ELEMENT_SET_NO":999,"REV_AT_EPOCH":14003,"BSTAR":0.00029015,"MEAN_MOTION_DOT":5.159e-5,"MEAN_MOTION_DDOT":0},{"OBJECT_NAME":"ACS3","OBJECT_ID":"2024-077B","EPOCH":"2026-03-24T09:34:51.902976","MEAN_MOTION":13.90283741,"ECCENTRICITY":0.0070696,"INCLINATION":97.1994,"RA_OF_ASC_NODE":21.2054,"ARG_OF_PERICENTER":42.4694,"MEAN_ANOMALY":318.1911,"EPHEMERIS_TYPE":0,"CLASSIFICATION_TYPE":"U","NORAD_CAT_ID":59588,"ELEMENT_SET_NO":999,"REV_AT_EPOCH":9624,"BSTAR":0.022093,"MEAN_MOTION_DOT":0.00027995,"MEAN_MOTION_DDOT":0},{"OBJECT_NAME":"SZ-21 MODULE","OBJECT_ID":"2025-246C","EPOCH":"2026-03-24T10:58:38.996256","MEAN_MOTION":15.69668398,"ECCENTRICITY":8.53e-5,"INCLINATION":41.4738,"RA_OF_ASC_NODE":112.3746,"ARG_OF_PERICENTER":213.1562,"MEAN_ANOMALY":146.9227,"EPHEMERIS_TYPE":0,"CLASSIFICATION_TYPE":"U","NORAD_CAT_ID":66515,"ELEMENT_SET_NO":999,"REV_AT_EPOCH":2039,"BSTAR":0.00027749,"MEAN_MOTION_DOT":0.00033703,"MEAN_MOTION_DDOT":0}]
